IRIDIUM 116             
1 43072U 17083C   23340.13095125  .00000409  00000+0  13885-3 0  9993
2 43072  86.3964 348.2141 0002127  88.8916 271.2523 14.34218577311727
IRIDIUM 130             
1 43073U 17083D   23340.09924831  .00001101  00000+0  38620-3 0  9998
2 43073  86.3970 348.4128 0002278  89.6765 270.4691 14.34210699311667
IRIDIUM 151             
1 43074U 17083E   23339.44595562  .00000424  00000+0  14444-3 0  9996
2 43074  86.3968 348.5370 0001904  93.9103 266.2310 14.34218418311594
IRIDIUM 134             
1 43075U 17083F   23339.55378685  .00000422  00000+0  14364-3 0  9993
2 43075  86.3944 348.4897 0003513  78.1654 281.9936 14.34213230311579
IRIDIUM 137             
1 43076U 17083G   23339.42692961  .00000403  00000+0  13701-3 0  9999
2 43076  86.3970 348.6151 0001941  83.8892 276.2525 14.34217923311624
IRIDIUM 141             
1 43077U 17083H   23339.56013441  .00000406  00000+0  13795-3 0  9991
2 43077  86.3966 348.4421 0002084  94.1685 265.9749 14.34215259311647
IRIDIUM 153             
1 43078U 17083J   23339.93091640  .00000237  00000+0  77533-4 0  9993
2 43078  86.3947 316.7393 0002074  95.4246 264.7186 14.34211937312809
IRIDIUM 131             
1 43079U 17083K   23339.40789872  .00000405  00000+0  13755-3 0  9999
2 43079  86.3971 348.6300 0002121  94.6276 265.5162 14.34219939311550
