<?xml version="1.0" encoding="UTF-8"?>
<ndm xmlns:xsi="http://www.w3.org/2001/XMLSchema-instance" xsi:noNamespaceSchemaLocation="https://sanaregistry.org/r/ndmxml_unqualified/ndmxml-2.0.0-master-2.0.xsd">
<omm id="CCSDS_OMM_VERS" version="2.0">
<header><CREATION_DATE/><ORIGINATOR/></header><body><segment><metadata><OBJECT_NAME>IRIDIUM 116</OBJECT_NAME><OBJECT_ID>2017-083C</OBJECT_ID><CENTER_NAME>EARTH</CENTER_NAME><REF_FRAME>TEME</REF_FRAME><TIME_SYSTEM>UTC</TIME_SYSTEM><MEAN_ELEMENT_THEORY>SGP4</MEAN_ELEMENT_THEORY></metadata><data><meanElements><EPOCH>2023-12-06T03:08:34.188000</EPOCH><MEAN_MOTION>14.34218577</MEAN_MOTION><ECCENTRICITY>.0002127</ECCENTRICITY><INCLINATION>86.3964</INCLINATION><RA_OF_ASC_NODE>348.2141</RA_OF_ASC_NODE><ARG_OF_PERICENTER>88.8916</ARG_OF_PERICENTER><MEAN_ANOMALY>271.2523</MEAN_ANOMALY></meanElements><tleParameters><EPHEMERIS_TYPE>0</EPHEMERIS_TYPE><CLASSIFICATION_TYPE>U</CLASSIFICATION_TYPE><NORAD_CAT_ID>43072</NORAD_CAT_ID><ELEMENT_SET_NO>999</ELEMENT_SET_NO><REV_AT_EPOCH>31172</REV_AT_EPOCH><BSTAR>.13885E-3</BSTAR><MEAN_MOTION_DOT>.409E-5</MEAN_MOTION_DOT><MEAN_MOTION_DDOT>0</MEAN_MOTION_DDOT></tleParameters></data></segment></body></omm>
<omm id="CCSDS_OMM_VERS" version="2.0">
<header><CREATION_DATE/><ORIGINATOR/></header><body><segment><metadata><OBJECT_NAME>IRIDIUM 130</OBJECT_NAME><OBJECT_ID>2017-083D</OBJECT_ID><CENTER_NAME>EARTH</CENTER_NAME><REF_FRAME>TEME</REF_FRAME><TIME_SYSTEM>UTC</TIME_SYSTEM><MEAN_ELEMENT_THEORY>SGP4</MEAN_ELEMENT_THEORY></metadata><data><meanElements><EPOCH>2023-12-06T02:22:55.053984</EPOCH><MEAN_MOTION>14.34210699</MEAN_MOTION><ECCENTRICITY>.0002278</ECCENTRICITY><INCLINATION>86.3970</INCLINATION><RA_OF_ASC_NODE>348.4128</RA_OF_ASC_NODE><ARG_OF_PERICENTER>89.6765</ARG_OF_PERICENTER><MEAN_ANOMALY>270.4691</MEAN_ANOMALY></meanElements><tleParameters><EPHEMERIS_TYPE>0</EPHEMERIS_TYPE><CLASSIFICATION_TYPE>U</CLASSIFICATION_TYPE><NORAD_CAT_ID>43073</NORAD_CAT_ID><ELEMENT_SET_NO>999</ELEMENT_SET_NO><REV_AT_EPOCH>31166</REV_AT_EPOCH><BSTAR>.3862E-3</BSTAR><MEAN_MOTION_DOT>.1101E-4</MEAN_MOTION_DOT><MEAN_MOTION_DDOT>0</MEAN_MOTION_DDOT></tleParameters></data></segment></body></omm>
<omm id="CCSDS_OMM_VERS" version="2.0">
<header><CREATION_DATE/><ORIGINATOR/></header><body><segment><metadata><OBJECT_NAME>IRIDIUM 151</OBJECT_NAME><OBJECT_ID>2017-083E</OBJECT_ID><CENTER_NAME>EARTH</CENTER_NAME><REF_FRAME>TEME</REF_FRAME><TIME_SYSTEM>UTC</TIME_SYSTEM><MEAN_ELEMENT_THEORY>SGP4</MEAN_ELEMENT_THEORY></metadata><data><meanElements><EPOCH>2023-12-05T10:42:10.565568</EPOCH><MEAN_MOTION>14.34218418</MEAN_MOTION><ECCENTRICITY>.0001904</ECCENTRICITY><INCLINATION>86.3968</INCLINATION><RA_OF_ASC_NODE>348.5370</RA_OF_ASC_NODE><ARG_OF_PERICENTER>93.9103</ARG_OF_PERICENTER><MEAN_ANOMALY>266.2310</MEAN_ANOMALY></meanElements><tleParameters><EPHEMERIS_TYPE>0</EPHEMERIS_TYPE><CLASSIFICATION_TYPE>U</CLASSIFICATION_TYPE><NORAD_CAT_ID>43074</NORAD_CAT_ID><ELEMENT_SET_NO>999</ELEMENT_SET_NO><REV_AT_EPOCH>31159</REV_AT_EPOCH><BSTAR>.14444E-3</BSTAR><MEAN_MOTION_DOT>.424E-5</MEAN_MOTION_DOT><MEAN_MOTION_DDOT>0</MEAN_MOTION_DDOT></tleParameters></data></segment></body></omm>
<omm id="CCSDS_OMM_VERS" version="2.0">
<header><CREATION_DATE/><ORIGINATOR/></header><body><segment><metadata><OBJECT_NAME>IRIDIUM 134</OBJECT_NAME><OBJECT_ID>2017-083F</OBJECT_ID><CENTER_NAME>EARTH</CENTER_NAME><REF_FRAME>TEME</REF_FRAME><TIME_SYSTEM>UTC</TIME_SYSTEM><MEAN_ELEMENT_THEORY>SGP4</MEAN_ELEMENT_THEORY></metadata><data><meanElements><EPOCH>2023-12-05T13:17:27.183840</EPOCH><MEAN_MOTION>14.34213230</MEAN_MOTION><ECCENTRICITY>.0003513</ECCENTRICITY><INCLINATION>86.3944</INCLINATION><RA_OF_ASC_NODE>348.4897</RA_OF_ASC_NODE><ARG_OF_PERICENTER>78.1654</ARG_OF_PERICENTER><MEAN_ANOMALY>281.9936</MEAN_ANOMALY></meanElements><tleParameters><EPHEMERIS_TYPE>0</EPHEMERIS_TYPE><CLASSIFICATION_TYPE>U</CLASSIFICATION_TYPE><NORAD_CAT_ID>43075</NORAD_CAT_ID><ELEMENT_SET_NO>999</ELEMENT_SET_NO><REV_AT_EPOCH>31157</REV_AT_EPOCH><BSTAR>.14364E-3</BSTAR><MEAN_MOTION_DOT>.422E-5</MEAN_MOTION_DOT><MEAN_MOTION_DDOT>0</MEAN_MOTION_DDOT></tleParameters></data></segment></body></omm>
<omm id="CCSDS_OMM_VERS" version="2.0">
<header><CREATION_DATE/><ORIGINATOR/></header><body><segment><metadata><OBJECT_NAME>IRIDIUM 137</OBJECT_NAME><OBJECT_ID>2017-083G</OBJECT_ID><CENTER_NAME>EARTH</CENTER_NAME><REF_FRAME>TEME</REF_FRAME><TIME_SYSTEM>UTC</TIME_SYSTEM><MEAN_ELEMENT_THEORY>SGP4</MEAN_ELEMENT_THEORY></metadata><data><meanElements><EPOCH>2023-12-05T10:14:46.718304</EPOCH><MEAN_MOTION>14.34217923</MEAN_MOTION><ECCENTRICITY>.0001941</ECCENTRICITY><INCLINATION>86.3970</INCLINATION><RA_OF_ASC_NODE>348.6151</RA_OF_ASC_NODE><ARG_OF_PERICENTER>83.8892</ARG_OF_PERICENTER><MEAN_ANOMALY>276.2525</MEAN_ANOMALY></meanElements><tleParameters><EPHEMERIS_TYPE>0</EPHEMERIS_TYPE><CLASSIFICATION_TYPE>U</CLASSIFICATION_TYPE><NORAD_CAT_ID>43076</NORAD_CAT_ID><ELEMENT_SET_NO>999</ELEMENT_SET_NO><REV_AT_EPOCH>31162</REV_AT_EPOCH><BSTAR>.13701E-3</BSTAR><MEAN_MOTION_DOT>.403E-5</MEAN_MOTION_DOT><MEAN_MOTION_DDOT>0</MEAN_MOTION_DDOT></tleParameters></data></segment></body></omm>
<omm id="CCSDS_OMM_VERS" version="2.0">
<header><CREATION_DATE/><ORIGINATOR/></header><body><segment><metadata><OBJECT_NAME>IRIDIUM 141</OBJECT_NAME><OBJECT_ID>2017-083H</OBJECT_ID><CENTER_NAME>EARTH</CENTER_NAME><REF_FRAME>TEME</REF_FRAME><TIME_SYSTEM>UTC</TIME_SYSTEM><MEAN_ELEMENT_THEORY>SGP4</MEAN_ELEMENT_THEORY></metadata><data><meanElements><EPOCH>2023-12-05T13:26:35.613024</EPOCH><MEAN_MOTION>14.34215259</MEAN_MOTION><ECCENTRICITY>.0002084</ECCENTRICITY><INCLINATION>86.3966</INCLINATION><RA_OF_ASC_NODE>348.4421</RA_OF_ASC_NODE><ARG_OF_PERICENTER>94.1685</ARG_OF_PERICENTER><MEAN_ANOMALY>265.9749</MEAN_ANOMALY></meanElements><tleParameters><EPHEMERIS_TYPE>0</EPHEMERIS_TYPE><CLASSIFICATION_TYPE>U</CLASSIFICATION_TYPE><NORAD_CAT_ID>43077</NORAD_CAT_ID><ELEMENT_SET_NO>999</ELEMENT_SET_NO><REV_AT_EPOCH>31164</REV_AT_EPOCH><BSTAR>.13795E-3</BSTAR><MEAN_MOTION_DOT>.406E-5</MEAN_MOTION_DOT><MEAN_MOTION_DDOT>0</MEAN_MOTION_DDOT></tleParameters></data></segment></body></omm>
<omm id="CCSDS_OMM_VERS" version="2.0">
<header><CREATION_DATE/><ORIGINATOR/></header><body><segment><metadata><OBJECT_NAME>IRIDIUM 153</OBJECT_NAME><OBJECT_ID>2017-083J</OBJECT_ID><CENTER_NAME>EARTH</CENTER_NAME><REF_FRAME>TEME</REF_FRAME><TIME_SYSTEM>UTC</TIME_SYSTEM><MEAN_ELEMENT_THEORY>SGP4</MEAN_ELEMENT_THEORY></metadata><data><meanElements><EPOCH>2023-12-05T22:20:31.176960</EPOCH><MEAN_MOTION>14.34211937</MEAN_MOTION><ECCENTRICITY>.0002074</ECCENTRICITY><INCLINATION>86.3947</INCLINATION><RA_OF_ASC_NODE>316.7393</RA_OF_ASC_NODE><ARG_OF_PERICENTER>95.4246</ARG_OF_PERICENTER><MEAN_ANOMALY>264.7186</MEAN_ANOMALY></meanElements><tleParameters><EPHEMERIS_TYPE>0</EPHEMERIS_TYPE><CLASSIFICATION_TYPE>U</CLASSIFICATION_TYPE><NORAD_CAT_ID>43078</NORAD_CAT_ID><ELEMENT_SET_NO>999</ELEMENT_SET_NO><REV_AT_EPOCH>31280</REV_AT_EPOCH><BSTAR>.77533E-4</BSTAR><MEAN_MOTION_DOT>.237E-5</MEAN_MOTION_DOT><MEAN_MOTION_DDOT>0</MEAN_MOTION_DDOT></tleParameters></data></segment></body></omm>
<omm id="CCSDS_OMM_VERS" version="2.0">
<header><CREATION_DATE/><ORIGINATOR/></header><body><segment><metadata><OBJECT_NAME>IRIDIUM 131</OBJECT_NAME><OBJECT_ID>2017-083K</OBJECT_ID><CENTER_NAME>EARTH</CENTER_NAME><REF_FRAME>TEME</REF_FRAME><TIME_SYSTEM>UTC</TIME_SYSTEM><MEAN_ELEMENT_THEORY>SGP4</MEAN_ELEMENT_THEORY></metadata><data><meanElements><EPOCH>2023-12-05T09:47:22.449408</EPOCH><MEAN_MOTION>14.34219939</MEAN_MOTION><ECCENTRICITY>.0002121</ECCENTRICITY><INCLINATION>86.3971</INCLINATION><RA_OF_ASC_NODE>348.6300</RA_OF_ASC_NODE><ARG_OF_PERICENTER>94.6276</ARG_OF_PERICENTER><MEAN_ANOMALY>265.5162</MEAN_ANOMALY></meanElements><tleParameters><EPHEMERIS_TYPE>0</EPHEMERIS_TYPE><CLASSIFICATION_TYPE>U</CLASSIFICATION_TYPE><NORAD_CAT_ID>43079</NORAD_CAT_ID><ELEMENT_SET_NO>999</ELEMENT_SET_NO><REV_AT_EPOCH>31155</REV_AT_EPOCH><BSTAR>.13755E-3</BSTAR><MEAN_MOTION_DOT>.405E-5</MEAN_MOTION_DOT><MEAN_MOTION_DDOT>0</MEAN_MOTION_DDOT></tleParameters></data></segment></body></omm>

</ndm>
